ONEWEB-0158             
1 48054U 21025N   24347.67977990  .00000290  00000+0  75994-3 0  9992
2 48054  87.8928  69.8984 0001874 103.1022 257.0317 13.13470873181235
ONEWEB-0157             
1 48055U 21025P   24347.70357375  .00000112  00000+0  27095-3 0  9998
2 48055  87.8930  69.9065 0001728 120.4280 239.7020 13.13469603181176
ONEWEB-0162             
1 48056U 21025Q   24347.66707353 -.00000012  00000+0 -68228-4 0  9994
2 48056  87.8924  69.9069 0001803 104.6630 255.4699 13.13471686181149
ONEWEB-0155             
1 48057U 21025R   24347.68770407  .00000410  00000+0  10874-2 0  9999
2 48057  87.8929  69.9161 0001599 107.6496 252.4808 13.13470646181282
ONEWEB-0149             
1 48058U 21025S   24348.47011490  .00000155  00000+0  38967-3 0  9998
2 48058  87.8929  69.7556 0001997 103.0498 257.0854 13.13468700181205
ONEWEB-0148             
1 48059U 21025T   24347.67342498  .00000200  00000+0  51406-3 0  9999
2 48059  87.8928  69.9311 0002441 112.5363 247.6025 13.13469910181217
ONEWEB-0160             
1 48060U 21025U   24347.68929858  .00000410  00000+0  10868-2 0  9992
2 48060  87.8930  69.9243 0001854  75.7485 284.3850 13.13470667181167
ONEWEB-0163             
1 48061U 21025V   24347.67501444  .00000162  00000+0  40833-3 0  9999
2 48061  87.8927  69.9142 0001797 114.5149 245.6167 13.13471346181286
